CTC1_L_00463001-01
1 48634U 22842CG  26037.47806713  .00000000  00000+0  00000-0 0  9996
2 48634  50.0000   0.0000 0000000   0.0000   0.0000 14.27529621    12
CTC1_L_00463001-02
1 48635U 22275GY  26037.47806713  .00000000  00000+0  00000-0 0  9997
2 48635  50.0000   0.0000 0000000   0.0000 180.0000 14.27529621    12
CTC1_L_00463002-01
1 48636U 25747CR  26037.47806713  .00000000  00000+0  00000-0 0  9995
2 48636  50.0000  12.0000 0000000   0.0000  24.0000 14.27529621    13
CTC1_L_00463002-02
1 48637U 25463SA  26037.47806713  .00000000  00000+0  00000-0 0  9991
2 48637  50.0000  12.0000 0000000   0.0000 204.0000 14.27529621    14
CTC1_L_00463003-01
1 48638U 24474GI  26037.47806713  .00000000  00000+0  00000-0 0  9993
2 48638  50.0000  24.0000 0000000   0.0000  48.0000 14.27529621    14
CTC1_L_00463003-02
1 48639U 26810UD  26037.47806713  .00000000  00000+0  00000-0 0  9990
2 48639  50.0000  24.0000 0000000   0.0000 228.0000 14.27529621    15
CTC1_L_00463004-01
1 48640U 24803CU  26037.47806713  .00000000  00000+0  00000-0 0  9992
2 48640  50.0000  36.0000 0000000   0.0000  72.0000 14.27529621    17
CTC1_L_00463004-02
1 48641U 26815QA  26037.47806713  .00000000  00000+0  00000-0 0  9998
2 48641  50.0000  36.0000 0000000   0.0000 252.0000 14.27529621    18
CTC1_L_00463005-01
1 48642U 25314KW  26037.47806713  .00000000  00000+0  00000-0 0  9992
2 48642  50.0000  48.0000 0000000   0.0000  96.0000 14.27529621    18
CTC1_L_00463005-02
1 48643U 24215BR  26037.47806713  .00000000  00000+0  00000-0 0  9992
2 48643  50.0000  48.0000 0000000   0.0000 276.0000 14.27529621    19
CTC1_L_00463006-01
1 48644U 24120KC  26037.47806713  .00000000  00000+0  00000-0 0  9998
2 48644  50.0000  60.0000 0000000   0.0000 120.0000 14.27529621    12
CTC1_L_00463006-02
1 48645U 26247TC  26037.47806713  .00000000  00000+0  00000-0 0  9991
2 48645  50.0000  60.0000 0000000   0.0000 300.0000 14.27529621    13
CTC1_L_00463007-01
1 48646U 24572CF  26037.47806713  .00000000  00000+0  00000-0 0  9991
2 48646  50.0000  72.0000 0000000   0.0000 144.0000 14.27529621    13
CTC1_L_00463007-02
1 48647U 23014AV  26037.47806713  .00000000  00000+0  00000-0 0  9992
2 48647  50.0000  72.0000 0000000   0.0000 324.0000 14.27529621    14
CTC1_L_00463008-01
1 48648U 24442ZN  26037.47806713  .00000000  00000+0  00000-0 0  9999
2 48648  50.0000  84.0000 0000000   0.0000 168.0000 14.27529621    14
CTC1_L_00463008-02
1 48649U 25288AN  26037.47806713  .00000000  00000+0  00000-0 0  9999
2 48649  50.0000  84.0000 0000000   0.0000 348.0000 14.27529621    15
CTC1_L_00463009-01
1 48650U 25007QW  26037.47806713  .00000000  00000+0  00000-0 0  9990
2 48650  50.0000  96.0000 0000000   0.0000 192.0000 14.27529621    17
CTC1_L_00463009-02
1 48651U 26912AG  26037.47806713  .00000000  00000+0  00000-0 0  9997
2 48651  50.0000  96.0000 0000000   0.0000  12.0000 14.27529621    19
CTC1_L_00463010-01
1 48652U 24225PK  26037.47806713  .00000000  00000+0  00000-0 0  9993
2 48652  50.0000 108.0000 0000000   0.0000 216.0000 14.27529621    10
CTC1_L_00463010-02
1 48653U 25830BD  26037.47806713  .00000000  00000+0  00000-0 0  9997
2 48653  50.0000 108.0000 0000000   0.0000  36.0000 14.27529621    11
CTC1_L_00463011-01
1 48654U 22410EU  26037.47806713  .00000000  00000+0  00000-0 0  9999
2 48654  50.0000 120.0000 0000000   0.0000 240.0000 14.27529621    13
CTC1_L_00463011-02
1 48655U 26233XS  26037.47806713  .00000000  00000+0  00000-0 0  9997
2 48655  50.0000 120.0000 0000000   0.0000  60.0000 14.27529621    14
CTC1_L_00463012-01
1 48656U 24146U   26037.47806713  .00000000  00000+0  00000-0 0  9999
2 48656  50.0000 132.0000 0000000   0.0000 264.0000 14.27529621    14
CTC1_L_00463012-02
1 48657U 22434CA  26037.47806713  .00000000  00000+0  00000-0 0  9998
2 48657  50.0000 132.0000 0000000   0.0000  84.0000 14.27529621    15
CTC1_L_00463013-01
1 48658U 24082CW  26037.47806713  .00000000  00000+0  00000-0 0  9990
2 48658  50.0000 144.0000 0000000   0.0000 288.0000 14.27529621    15
CTC1_L_00463013-02
1 48659U 25332GO  26037.47806713  .00000000  00000+0  00000-0 0  9990
2 48659  50.0000 144.0000 0000000   0.0000 108.0000 14.27529621    17
CTC1_L_00463014-01
1 48660U 24482QO  26037.47806713  .00000000  00000+0  00000-0 0  9997
2 48660  50.0000 156.0000 0000000   0.0000 312.0000 14.27529621    19
CTC1_L_00463014-02
1 48661U 23999AN  26037.47806713  .00000000  00000+0  00000-0 0  9990
2 48661  50.0000 156.0000 0000000   0.0000 132.0000 14.27529621    10
CTC1_L_00463015-01
1 48662U 24198RB  26037.47806713  .00000000  00000+0  00000-0 0  9993
2 48662  50.0000 168.0000 0000000   0.0000 336.0000 14.27529621    10
CTC1_L_00463015-02
1 48663U 22574RN  26037.47806713  .00000000  00000+0  00000-0 0  9990
2 48663  50.0000 168.0000 0000000   0.0000 156.0000 14.27529621    11
CTC1_L_00463016-01
1 48664U 22306XM  26037.47806713  .00000000  00000+0  00000-0 0  9994
2 48664  50.0000 180.0000 0000000   0.0000   0.0000 14.27529621    14
CTC1_L_00463016-02
1 48665U 25866XJ  26037.47806713  .00000000  00000+0  00000-0 0  9999
2 48665  50.0000 180.0000 0000000   0.0000 180.0000 14.27529621    14
CTC1_L_00463017-01
1 48666U 23502SQ  26037.47806713  .00000000  00000+0  00000-0 0  9995
2 48666  50.0000 192.0000 0000000   0.0000  24.0000 14.27529621    15
CTC1_L_00463017-02
1 48667U 23502CI  26037.47806713  .00000000  00000+0  00000-0 0  9996
2 48667  50.0000 192.0000 0000000   0.0000 204.0000 14.27529621    16
CTC1_L_00463018-01
1 48668U 22459DH  26037.47806713  .00000000  00000+0  00000-0 0  9997
2 48668  50.0000 204.0000 0000000   0.0000  48.0000 14.27529621    17
CTC1_L_00463018-02
1 48669U 24854VZ  26037.47806713  .00000000  00000+0  00000-0 0  9999
2 48669  50.0000 204.0000 0000000   0.0000 228.0000 14.27529621    18
CTC1_L_00463019-01
1 48670U 24571ZC  26037.47806713  .00000000  00000+0  00000-0 0  9997
2 48670  50.0000 216.0000 0000000   0.0000  72.0000 14.27529621    10
CTC1_L_00463019-02
1 48671U 22363FU  26037.47806713  .00000000  00000+0  00000-0 0  9995
2 48671  50.0000 216.0000 0000000   0.0000 252.0000 14.27529621    11
CTC1_L_00463020-01
1 48672U 23219RS  26037.47806713  .00000000  00000+0  00000-0 0  9997
2 48672  50.0000 228.0000 0000000   0.0000  96.0000 14.27529621    11
CTC1_L_00463020-02
1 48673U 23468SN  26037.47806713  .00000000  00000+0  00000-0 0  9994
2 48673  50.0000 228.0000 0000000   0.0000 276.0000 14.27529621    12
CTC1_L_00463021-01
1 48674U 22847UO  26037.47806713  .00000000  00000+0  00000-0 0  9995
2 48674  50.0000 240.0000 0000000   0.0000 120.0000 14.27529621    15
CTC1_L_00463021-02
1 48675U 25976CM  26037.47806713  .00000000  00000+0  00000-0 0  9992
2 48675  50.0000 240.0000 0000000   0.0000 300.0000 14.27529621    16
CTC1_L_00463022-01
1 48676U 23319MT  26037.47806713  .00000000  00000+0  00000-0 0  9992
2 48676  50.0000 252.0000 0000000   0.0000 144.0000 14.27529621    16
CTC1_L_00463022-02
1 48677U 22619QX  26037.47806713  .00000000  00000+0  00000-0 0  9995
2 48677  50.0000 252.0000 0000000   0.0000 324.0000 14.27529621    17
CTC1_L_00463023-01
1 48678U 24022XN  26037.47806713  .00000000  00000+0  00000-0 0  9996
2 48678  50.0000 264.0000 0000000   0.0000 168.0000 14.27529621    17
CTC1_L_00463023-02
1 48679U 23558CI  26037.47806713  .00000000  00000+0  00000-0 0  9990
2 48679  50.0000 264.0000 0000000   0.0000 348.0000 14.27529621    18
CTC1_L_00463024-01
1 48680U 26746JH  26037.47806713  .00000000  00000+0  00000-0 0  9994
2 48680  50.0000 276.0000 0000000   0.0000 192.0000 14.27529621    10
CTC1_L_00463024-02
1 48681U 25266CO  26037.47806713  .00000000  00000+0  00000-0 0  9991
2 48681  50.0000 276.0000 0000000   0.0000  12.0000 14.27529621    12
CTC1_L_00463025-01
1 48682U 24969TY  26037.47806713  .00000000  00000+0  00000-0 0  9991
2 48682  50.0000 288.0000 0000000   0.0000 216.0000 14.27529621    12
CTC1_L_00463025-02
1 48683U 25499JH  26037.47806713  .00000000  00000+0  00000-0 0  9991
2 48683  50.0000 288.0000 0000000   0.0000  36.0000 14.27529621    13
CTC1_L_00463026-01
1 48684U 24732SF  26037.47806713  .00000000  00000+0  00000-0 0  9991
2 48684  50.0000 300.0000 0000000   0.0000 240.0000 14.27529621    16
CTC1_L_00463026-02
1 48685U 22028GS  26037.47806713  .00000000  00000+0  00000-0 0  9998
2 48685  50.0000 300.0000 0000000   0.0000  60.0000 14.27529621    17
CTC1_L_00463027-01
1 48686U 26536IZ  26037.47806713  .00000000  00000+0  00000-0 0  9997
2 48686  50.0000 312.0000 0000000   0.0000 264.0000 14.27529621    17
CTC1_L_00463027-02
1 48687U 22248HS  26037.47806713  .00000000  00000+0  00000-0 0  9994
2 48687  50.0000 312.0000 0000000   0.0000  84.0000 14.27529621    18
CTC1_L_00463028-01
1 48688U 23070SK  26037.47806713  .00000000  00000+0  00000-0 0  9999
2 48688  50.0000 324.0000 0000000   0.0000 288.0000 14.27529621    18
CTC1_L_00463028-02
1 48689U 24920PI  26037.47806713  .00000000  00000+0  00000-0 0  9995
2 48689  50.0000 324.0000 0000000   0.0000 108.0000 14.27529621    10
CTC1_L_00463029-01
1 48690U 26502FD  26037.47806713  .00000000  00000+0  00000-0 0  9995
2 48690  50.0000 336.0000 0000000   0.0000 312.0000 14.27529621    12
CTC1_L_00463029-02
1 48691U 25430DO  26037.47806713  .00000000  00000+0  00000-0 0  9995
2 48691  50.0000 336.0000 0000000   0.0000 132.0000 14.27529621    13
CTC1_L_00463030-01
1 48692U 23587J   26037.47806713  .00000000  00000+0  00000-0 0  9997
2 48692  50.0000 348.0000 0000000   0.0000 336.0000 14.27529621    13
CTC1_L_00463030-02
1 48693U 25196MU  26037.47806713  .00000000  00000+0  00000-0 0  9996
2 48693  50.0000 348.0000 0000000   0.0000 156.0000 14.27529621    14
